[{"OBJECT_NAME":"STARLINK-5133","OBJECT_ID":"2022-125S","EPOCH":"2026-03-09T16:08:11.095296","MEAN_MOTION":15.08828557,"ECCENTRICITY":0.00013247,"INCLINATION":53.2172,"RA_OF_ASC_NODE":218.9242,"ARG_OF_PERICENTER":73.7409,"MEAN_ANOMALY":286.3729,"EPHEMERIS_TYPE":0,"CLASSIFICATION_TYPE":"U","NORAD_CAT_ID":53980,"ELEMENT_SET_NO":999,"REV_AT_EPOCH":18939,"BSTAR":-2.1459757e-5,"MEAN_MOTION_DOT":-6.29e-6,"MEAN_MOTION_DDOT":0},{"OBJECT_NAME":"OBJECT B","OBJECT_ID":"2025-013B","EPOCH":"2026-03-09T22:32:54.215232","MEAN_MOTION":15.10568465,"ECCENTRICITY":0.00132175,"INCLINATION":97.6475,"RA_OF_ASC_NODE":238.3035,"ARG_OF_PERICENTER":355.2799,"MEAN_ANOMALY":4.8303,"EPHEMERIS_TYPE":0,"CLASSIFICATION_TYPE":"U","NORAD_CAT_ID":62730,"ELEMENT_SET_NO":999,"REV_AT_EPOCH":6234,"BSTAR":0.00034549224,"MEAN_MOTION_DOT":5.648e-5,"MEAN_MOTION_DDOT":0}]
